{"type": "FeatureCollection", "features": [{"type": "Feature", "properties": {"norad_id": 24876, "name": "GPS BIIR-2  (PRN 13)", "group": "gps-ops", "lat": 27.194317280190777, "lon": -95.02757199710541, "alt_km": 20174.578953935074, "timestamp": "2025-12-26T21:25:53.269228+00:00", "meta": {"OBJECT_NAME": "GPS BIIR-2  (PRN 13)", "OBJECT_ID": "1997-035A", "EPOCH": "2025-12-25T04:43:59.116800", "MEAN_MOTION": 2.00563692, "ECCENTRICITY": 0.0096849, "INCLINATION": 55.901, "RA_OF_ASC_NODE": 105.3817, "ARG_OF_PERICENTER": 56.9385, "MEAN_ANOMALY": 303.9881, "EPHEMERIS_TYPE": 0, "CLASSIFICATION_TYPE": "U", "NORAD_CAT_ID": 24876, "ELEMENT_SET_NO": 999, "REV_AT_EPOCH": 20846, "BSTAR": 0, "MEAN_MOTION_DOT": 2.8e-07, "MEAN_MOTION_DDOT": 0}, "tle": {"line1": "1 24876U 97035A   25359.19721200  .00000028  00000+0  00000+0 0  9995", "line2": "2 24876  55.9010 105.3817 0096849  56.9385 303.9881  2.00563692208461"}}, "geometry": {"type": "Point", "coordinates": [-95.02757199710541, 27.194317280190777]}}, {"type": "Feature", "properties": {"norad_id": 26360, "name": "GPS BIIR-4  (PRN 20)", "group": "gps-ops", "lat": -43.66697954542816, "lon": -111.86676813177496, "alt_km": 20084.09750461246, "timestamp": "2025-12-26T21:25:53.269255+00:00", "meta": {"OBJECT_NAME": "GPS BIIR-4  (PRN 20)", "OBJECT_ID": "2000-025A", "EPOCH": "2025-12-26T15:26:17.637216", "MEAN_MOTION": 2.00566407, "ECCENTRICITY": 0.00388963, "INCLINATION": 55.0535, "RA_OF_ASC_NODE": 26.2756, "ARG_OF_PERICENTER": 243.3079, "MEAN_ANOMALY": 173.8394, "EPHEMERIS_TYPE": 0, "CLASSIFICATION_TYPE": "U", "NORAD_CAT_ID": 26360, "ELEMENT_SET_NO": 999, "REV_AT_EPOCH": 18781, "BSTAR": 0, "MEAN_MOTION_DOT": -5.6e-07, "MEAN_MOTION_DDOT": 0}, "tle": {"line1": "1 26360U 00025A   25360.64325969 -.00000056  00000+0  00000+0 0  9994", "line2": "2 26360  55.0535  26.2756 0038896 243.3079 173.8394  2.00566407187812"}}, "geometry": {"type": "Point", "coordinates": [-111.86676813177496, -43.66697954542816]}}, {"type": "Feature", "properties": {"norad_id": 26407, "name": "GPS BIIR-5  (PRN 22)", "group": "gps-ops", "lat": 53.16751792053105, "lon": -68.07113936988702, "alt_km": 20412.968659587874, "timestamp": "2025-12-26T21:25:53.269271+00:00", "meta": {"OBJECT_NAME": "GPS BIIR-5  (PRN 22)", "OBJECT_ID": "2000-040A", "EPOCH": "2025-12-26T00:40:29.483328", "MEAN_MOTION": 2.00568075, "ECCENTRICITY": 0.01252985, "INCLINATION": 54.8879, "RA_OF_ASC_NODE": 222.0405, "ARG_OF_PERICENTER": 302.0168, "MEAN_ANOMALY": 230.6672, "EPHEMERIS_TYPE": 0, "CLASSIFICATION_TYPE": "U", "NORAD_CAT_ID": 26407, "ELEMENT_SET_NO": 999, "REV_AT_EPOCH": 18647, "BSTAR": 0, "MEAN_MOTION_DOT": 7.1e-07, "MEAN_MOTION_DDOT": 0}, "tle": {"line1": "1 26407U 00040A   25360.02811902  .00000071  00000+0  00000+0 0  9998", "line2": "2 26407  54.8879 222.0405 0125298 302.0168 230.6672  2.00568075186479"}}, "geometry": {"type": "Point", "coordinates": [-68.07113936988702, 53.16751792053105]}}, {"type": "Feature", "properties": {"norad_id": 27663, "name": "GPS BIIR-8  (PRN 16)", "group": "gps-ops", "lat": -26.992876291186683, "lon": 62.79552795739604, "alt_km": 20557.85344637091, "timestamp": "2025-12-26T21:25:53.269284+00:00", "meta": {"OBJECT_NAME": "GPS BIIR-8  (PRN 16)", "OBJECT_ID": "2003-005A", "EPOCH": "2025-12-26T14:42:29.071008", "MEAN_MOTION": 2.00570063, "ECCENTRICITY": 0.01479206, "INCLINATION": 54.9204, "RA_OF_ASC_NODE": 221.8264, "ARG_OF_PERICENTER": 52.0033, "MEAN_ANOMALY": 318.8923, "EPHEMERIS_TYPE": 0, "CLASSIFICATION_TYPE": "U", "NORAD_CAT_ID": 27663, "ELEMENT_SET_NO": 999, "REV_AT_EPOCH": 16785, "BSTAR": 0, "MEAN_MOTION_DOT": 7.5e-07, "MEAN_MOTION_DDOT": 0}, "tle": {"line1": "1 27663U 03005A   25360.61283647  .00000075  00000+0  00000+0 0  9995", "line2": "2 27663  54.9204 221.8264 0147920  52.0033 318.8923  2.00570063167855"}}, "geometry": {"type": "Point", "coordinates": [62.79552795739604, -26.992876291186683]}}, {"type": "Feature", "properties": {"norad_id": 28190, "name": "GPS BIIR-11 (PRN 19)", "group": "gps-ops", "lat": 8.869942950101585, "lon": -71.08278475692956, "alt_km": 20447.023152316284, "timestamp": "2025-12-26T21:25:53.269296+00:00", "meta": {"OBJECT_NAME": "GPS BIIR-11 (PRN 19)", "OBJECT_ID": "2004-009A", "EPOCH": "2025-12-26T01:56:36.259872", "MEAN_MOTION": 2.00560231, "ECCENTRICITY": 0.01085974, "INCLINATION": 54.9736, "RA_OF_ASC_NODE": 282.6813, "ARG_OF_PERICENTER": 167.8637, "MEAN_ANOMALY": 337.216, "EPHEMERIS_TYPE": 0, "CLASSIFICATION_TYPE": "U", "NORAD_CAT_ID": 28190, "ELEMENT_SET_NO": 999, "REV_AT_EPOCH": 15947, "BSTAR": 0, "MEAN_MOTION_DOT": -3e-07, "MEAN_MOTION_DDOT": 0}, "tle": {"line1": "1 28190U 04009A   25360.08097523 -.00000030  00000+0  00000+0 0  9995", "line2": "2 28190  54.9736 282.6813 0108597 167.8637 337.2160  2.00560231159471"}}, "geometry": {"type": "Point", "coordinates": [-71.08278475692956, 8.869942950101585]}}, {"type": "Feature", "properties": {"norad_id": 28474, "name": "GPS BIIR-13 (PRN 02)", "group": "gps-ops", "lat": 51.99107847497128, "lon": 34.488306401875555, "alt_km": 20422.833077072068, "timestamp": "2025-12-26T21:25:53.269309+00:00", "meta": {"OBJECT_NAME": "GPS BIIR-13 (PRN 02)", "OBJECT_ID": "2004-045A", "EPOCH": "2025-12-26T11:00:01.330272", "MEAN_MOTION": 2.00570057, "ECCENTRICITY": 0.01710066, "INCLINATION": 55.2338, "RA_OF_ASC_NODE": 331.8542, "ARG_OF_PERICENTER": 309.865, "MEAN_ANOMALY": 168.2197, "EPHEMERIS_TYPE": 0, "CLASSIFICATION_TYPE": "U", "NORAD_CAT_ID": 28474, "ELEMENT_SET_NO": 999, "REV_AT_EPOCH": 15496, "BSTAR": 0, "MEAN_MOTION_DOT": -5.9e-07, "MEAN_MOTION_DDOT": 0}, "tle": {"line1": "1 28474U 04045A   25360.45834873 -.00000059  00000+0  00000+0 0  9999", "line2": "2 28474  55.2338 331.8542 0171006 309.8650 168.2197  2.00570057154960"}}, "geometry": {"type": "Point", "coordinates": [34.488306401875555, 51.99107847497128]}}, {"type": "Feature", "properties": {"norad_id": 28874, "name": "GPS BIIRM-1 (PRN 17)", "group": "gps-ops", "lat": 26.287442849841955, "lon": -59.6686585536393, "alt_km": 20226.366364270532, "timestamp": "2025-12-26T21:25:53.269321+00:00", "meta": {"OBJECT_NAME": "GPS BIIRM-1 (PRN 17)", "OBJECT_ID": "2005-038A", "EPOCH": "2025-12-24T20:45:31.120992", "MEAN_MOTION": 2.00577585, "ECCENTRICITY": 0.0131256, "INCLINATION": 55.0211, "RA_OF_ASC_NODE": 280.2128, "ARG_OF_PERICENTER": 293.8377, "MEAN_ANOMALY": 72.9738, "EPHEMERIS_TYPE": 0, "CLASSIFICATION_TYPE": "U", "NORAD_CAT_ID": 28874, "ELEMENT_SET_NO": 999, "REV_AT_EPOCH": 14834, "BSTAR": 0, "MEAN_MOTION_DOT": -2.3e-07, "MEAN_MOTION_DDOT": 0}, "tle": {"line1": "1 28874U 05038A   25358.86494353 -.00000023  00000+0  00000+0 0  9994", "line2": "2 28874  55.0211 280.2128 0131256 293.8377  72.9738  2.00577585148340"}}, "geometry": {"type": "Point", "coordinates": [-59.6686585536393, 26.287442849841955]}}, {"type": "Feature", "properties": {"norad_id": 29486, "name": "GPS BIIRM-2 (PRN 31)", "group": "gps-ops", "lat": -49.08568160480542, "lon": 103.32343013570566, "alt_km": 20329.109371116305, "timestamp": "2025-12-26T21:25:53.269333+00:00", "meta": {"OBJECT_NAME": "GPS BIIRM-2 (PRN 31)", "OBJECT_ID": "2006-042A", "EPOCH": "2025-12-26T12:05:34.202112", "MEAN_MOTION": 2.00553566, "ECCENTRICITY": 0.01072697, "INCLINATION": 54.6956, "RA_OF_ASC_NODE": 158.1947, "ARG_OF_PERICENTER": 52.2681, "MEAN_ANOMALY": 319.984, "EPHEMERIS_TYPE": 0, "CLASSIFICATION_TYPE": "U", "NORAD_CAT_ID": 29486, "ELEMENT_SET_NO": 999, "REV_AT_EPOCH": 14093, "BSTAR": 0, "MEAN_MOTION_DOT": 1.08e-06, "MEAN_MOTION_DDOT": 0}, "tle": {"line1": "1 29486U 06042A   25360.50386808  .00000108  00000+0  00000+0 0  9992", "line2": "2 29486  54.6956 158.1947 0107269  52.2681 319.9840  2.00553566140933"}}, "geometry": {"type": "Point", "coordinates": [103.32343013570566, -49.08568160480542]}}, {"type": "Feature", "properties": {"norad_id": 29601, "name": "GPS BIIRM-3 (PRN 12)", "group": "gps-ops", "lat": -7.525247288262377, "lon": -144.46858125942265, "alt_km": 20207.973530937543, "timestamp": "2025-12-26T21:25:53.269345+00:00", "meta": {"OBJECT_NAME": "GPS BIIRM-3 (PRN 12)", "OBJECT_ID": "2006-052A", "EPOCH": "2025-12-25T21:48:25.793568", "MEAN_MOTION": 2.00574428, "ECCENTRICITY": 0.00879901, "INCLINATION": 54.968, "RA_OF_ASC_NODE": 220.8755, "ARG_OF_PERICENTER": 87.5984, "MEAN_ANOMALY": 273.4866, "EPHEMERIS_TYPE": 0, "CLASSIFICATION_TYPE": "U", "NORAD_CAT_ID": 29601, "ELEMENT_SET_NO": 999, "REV_AT_EPOCH": 13993, "BSTAR": 0, "MEAN_MOTION_DOT": 7.2e-07, "MEAN_MOTION_DDOT": 0}, "tle": {"line1": "1 29601U 06052A   25359.90863187  .00000072  00000+0  00000+0 0  9994", "line2": "2 29601  54.9680 220.8755 0087990  87.5984 273.4866  2.00574428139938"}}, "geometry": {"type": "Point", "coordinates": [-144.46858125942265, -7.525247288262377]}}, {"type": "Feature", "properties": {"norad_id": 32260, "name": "GPS BIIRM-4 (PRN 15)", "group": "gps-ops", "lat": 36.429122618689476, "lon": -125.26862012087528, "alt_km": 19878.775924925456, "timestamp": "2025-12-26T21:25:53.269357+00:00", "meta": {"OBJECT_NAME": "GPS BIIRM-4 (PRN 15)", "OBJECT_ID": "2007-047A", "EPOCH": "2025-12-23T05:22:00.882048", "MEAN_MOTION": 2.00564099, "ECCENTRICITY": 0.01640403, "INCLINATION": 53.9621, "RA_OF_ASC_NODE": 87.3254, "ARG_OF_PERICENTER": 85.3777, "MEAN_ANOMALY": 276.5133, "EPHEMERIS_TYPE": 0, "CLASSIFICATION_TYPE": "U", "NORAD_CAT_ID": 32260, "ELEMENT_SET_NO": 999, "REV_AT_EPOCH": 13328, "BSTAR": 0, "MEAN_MOTION_DOT": -6e-08, "MEAN_MOTION_DDOT": 0}, "tle": {"line1": "1 32260U 07047A   25357.22362132 -.00000006  00000+0  00000+0 0  9999", "line2": "2 32260  53.9621  87.3254 0164040  85.3777 276.5133  2.00564099133281"}}, "geometry": {"type": "Point", "coordinates": [-125.26862012087528, 36.429122618689476]}}]}